[{"OBJECT_NAME":"FLOCK 4BE-27","OBJECT_ID":"2024-149AX","EPOCH":"2026-03-09T18:04:53.053248","MEAN_MOTION":15.32593322,"ECCENTRICITY":0.00027324,"INCLINATION":97.3862,"RA_OF_ASC_NODE":150.6783,"ARG_OF_PERICENTER":305.898,"MEAN_ANOMALY":54.2008,"EPHEMERIS_TYPE":0,"CLASSIFICATION_TYPE":"U","NORAD_CAT_ID":60513,"ELEMENT_SET_NO":999,"REV_AT_EPOCH":8690,"BSTAR":0.00036576028,"MEAN_MOTION_DOT":0.00011439,"MEAN_MOTION_DDOT":0},{"OBJECT_NAME":"STARLINK-35950","OBJECT_ID":"2025-271F","EPOCH":"2026-03-09T11:42:55.467072","MEAN_MOTION":15.30178221,"ECCENTRICITY":0.0001255,"INCLINATION":53.1566,"RA_OF_ASC_NODE":141.0272,"ARG_OF_PERICENTER":65.2395,"MEAN_ANOMALY":294.8736,"EPHEMERIS_TYPE":0,"CLASSIFICATION_TYPE":"U","NORAD_CAT_ID":66622,"ELEMENT_SET_NO":999,"REV_AT_EPOCH":1753,"BSTAR":0.0013183901,"MEAN_MOTION_DOT":0.00038866,"MEAN_MOTION_DDOT":0}]
