FLOCK 4BE-27            
1 60513U 24149AX  26068.75339182  .00011439  00000+0  36576-3 0  9992
2 60513  97.3862 150.6783 0002732 305.8980  54.2008 15.32593322 86906
STARLINK-35950          
1 66622U 25271F   26068.48814198  .00038866  00000+0  13184-2 0  9993
2 66622  53.1566 141.0272 0001255  65.2395 294.8736 15.30178221 17535
